[
    {
        "Altitude(m)": 711128.4337958873,
        "Argument of Periapsis(deg)": 0.006834072711976239,
        "Eccentricity": 0.0,
        "Inclination(deg)": 45.0,
        "Latitude(deg)": -28.51093682578549,
        "Longitude(deg)": 166.84470777438565,
        "Mean Anomaly(deg)": -42.17097001151146,
        "RAAN(deg)": 299.9935488351251,
        "Satellite Name": "Constellation 1 1339",
        "Satellite Number": 1339,
        "Semi-Major Axis(m)": 7083131.272910544,
        "Time(s)": 114
    },
    {
        "Altitude(m)": 711114.6213276152,
        "Argument of Periapsis(deg)": 0.006894020718221645,
        "Eccentricity": 0.0,
        "Inclination(deg)": 45.0,
        "Latitude(deg)": -28.474700222505668,
        "Longitude(deg)": 166.89590755659916,
        "Mean Anomaly(deg)": -42.110268871261574,
        "RAAN(deg)": 299.99349224595954,
        "Satellite Name": "Constellation 1 1339",
        "Satellite Number": 1339,
        "Semi-Major Axis(m)": 7083131.272910544,
        "Time(s)": 115
    },
    {
        "Altitude(m)": 711100.8068389164,
        "Argument of Periapsis(deg)": 0.006953968724467052,
        "Eccentricity": 0.0,
        "Inclination(deg)": 45.0,
        "Latitude(deg)": -28.438440874108117,
        "Longitude(deg)": 166.9470697400044,
        "Mean Anomaly(deg)": -42.04956773101164,
        "RAAN(deg)": 299.9934356567939,
        "Satellite Name": "Constellation 1 1339",
        "Satellite Number": 1339,
        "Semi-Major Axis(m)": 7083131.272910544,
        "Time(s)": 116
    },
    {
        "Altitude(m)": 711086.990377824,
        "Argument of Periapsis(deg)": 0.007013916730712457,
        "Eccentricity": 0.0,
        "Inclination(deg)": 45.0,
        "Latitude(deg)": -28.40215882935986,
        "Longitude(deg)": 166.99819438366245,
        "Mean Anomaly(deg)": -41.9888665907617,
        "RAAN(deg)": 299.9933790676284,
        "Satellite Name": "Constellation 1 1339",
        "Satellite Number": 1339,
        "Semi-Major Axis(m)": 7083131.272910544,
        "Time(s)": 117
    },
    {
        "Altitude(m)": 711073.1719923639,
        "Argument of Periapsis(deg)": 0.007073864736957864,
        "Eccentricity": 0.0,
        "Inclination(deg)": 45.0,
        "Latitude(deg)": -28.365854136958326,
        "Longitude(deg)": 167.04928154666635,
        "Mean Anomaly(deg)": -41.92816545051191,
        "RAAN(deg)": 299.9933224784628,
        "Satellite Name": "Constellation 1 1339",
        "Satellite Number": 1339,
        "Semi-Major Axis(m)": 7083131.272910544,
        "Time(s)": 118
    },
    {
        "Altitude(m)": 711059.3517305633,
        "Argument of Periapsis(deg)": 0.0071338127432032696,
        "Eccentricity": 0.0,
        "Inclination(deg)": 45.0,
        "Latitude(deg)": -28.329526845530832,
        "Longitude(deg)": 167.10033112004422,
        "Mean Anomaly(deg)": -41.86746431026198,
        "RAAN(deg)": 299.9932658892973,
        "Satellite Name": "Constellation 1 1339",
        "Satellite Number": 1339,
        "Semi-Major Axis(m)": 7083131.272910544,
        "Time(s)": 119
    },
    {
        "Altitude(m)": 711045.529640442,
        "Argument of Periapsis(deg)": 0.007193760749448674,
        "Eccentricity": 0.0,
        "Inclination(deg)": 45.0,
        "Latitude(deg)": -28.293177003636455,
        "Longitude(deg)": 167.1513434991456,
        "Mean Anomaly(deg)": -41.80676317001199,
        "RAAN(deg)": 299.99320930013164,
        "Satellite Name": "Constellation 1 1339",
        "Satellite Number": 1339,
        "Semi-Major Axis(m)": 7083131.272910544,
        "Time(s)": 120
    },
    {
        "Altitude(m)": 711031.7057700201,
        "Argument of Periapsis(deg)": 0.007253708755694079,
        "Eccentricity": 0.0,
        "Inclination(deg)": 45.0,
        "Latitude(deg)": -28.25680465976399,
        "Longitude(deg)": 167.2023185750596,
        "Mean Anomaly(deg)": -41.74606202976221,
        "RAAN(deg)": 299.99315271096606,
        "Satellite Name": "Constellation 1 1339",
        "Satellite Number": 1339,
        "Semi-Major Axis(m)": 7083131.272910544,
        "Time(s)": 121
    },
    {
        "Altitude(m)": 711017.8801673066,
        "Argument of Periapsis(deg)": 0.0073136567619394854,
        "Eccentricity": 0.0,
        "Inclination(deg)": 45.0,
        "Latitude(deg)": -28.2204098623328,
        "Longitude(deg)": 167.25325640700274,
        "Mean Anomaly(deg)": -41.68536088951227,
        "RAAN(deg)": 299.99309612180053,
        "Satellite Name": "Constellation 1 1339",
        "Satellite Number": 1339,
        "Semi-Major Axis(m)": 7083131.272910544,
        "Time(s)": 122
    },
    {
        "Altitude(m)": 711004.0528803101,
        "Argument of Periapsis(deg)": 0.0073736047681848904,
        "Eccentricity": 0.0,
        "Inclination(deg)": 45.0,
        "Latitude(deg)": -28.183992659693363,
        "Longitude(deg)": 167.30415705422047,
        "Mean Anomaly(deg)": -41.624659749262335,
        "RAAN(deg)": 299.99303953263495,
        "Satellite Name": "Constellation 1 1339",
        "Satellite Number": 1339,
        "Semi-Major Axis(m)": 7083131.272910544,
        "Time(s)": 123
    },
    {
        "Altitude(m)": 710990.2239570379,
        "Argument of Periapsis(deg)": 0.007433552774430298,
        "Eccentricity": 0.0,
        "Inclination(deg)": 45.0,
        "Latitude(deg)": -28.147553100126792,
        "Longitude(deg)": 167.35502057598754,
        "Mean Anomaly(deg)": -41.563958609012396,
        "RAAN(deg)": 299.99298294346943,
        "Satellite Name": "Constellation 1 1339",
        "Satellite Number": 1339,
        "Semi-Major Axis(m)": 7083131.272910544,
        "Time(s)": 124
    },
    {
        "Altitude(m)": 710976.3934454878,
        "Argument of Periapsis(deg)": 0.007493500780675703,
        "Eccentricity": 0.0,
        "Inclination(deg)": 45.0,
        "Latitude(deg)": -28.111091231845215,
        "Longitude(deg)": 167.4058470316066,
        "Mean Anomaly(deg)": -41.503257468762605,
        "RAAN(deg)": 299.99292635430385,
        "Satellite Name": "Constellation 1 1339",
        "Satellite Number": 1339,
        "Semi-Major Axis(m)": 7083131.272910544,
        "Time(s)": 125
    },
    {
        "Altitude(m)": 710962.5613936564,
        "Argument of Periapsis(deg)": 0.007553448786921108,
        "Eccentricity": 0.0,
        "Inclination(deg)": 45.0,
        "Latitude(deg)": -28.07460710299099,
        "Longitude(deg)": 167.45663631231204,
        "Mean Anomaly(deg)": -41.44255632851262,
        "RAAN(deg)": 299.9928697651382,
        "Satellite Name": "Constellation 1 1339",
        "Satellite Number": 1339,
        "Semi-Major Axis(m)": 7083131.272910544,
        "Time(s)": 126
    },
    {
        "Altitude(m)": 710948.7278495248,
        "Argument of Periapsis(deg)": 0.007613396793166514,
        "Eccentricity": 0.0,
        "Inclination(deg)": 45.0,
        "Latitude(deg)": -28.03810076163884,
        "Longitude(deg)": 167.507388813656,
        "Mean Anomaly(deg)": -41.38185518826279,
        "RAAN(deg)": 299.9928131759727,
        "Satellite Name": "Constellation 1 1339",
        "Satellite Number": 1339,
        "Semi-Major Axis(m)": 7083131.272910544,
        "Time(s)": 127
    },
    {
        "Altitude(m)": 710934.892861082,
        "Argument of Periapsis(deg)": 0.007673344799411918,
        "Eccentricity": 0.0,
        "Inclination(deg)": 45.0,
        "Latitude(deg)": -28.00157225579332,
        "Longitude(deg)": 167.55810442692692,
        "Mean Anomaly(deg)": -41.3211540480129,
        "RAAN(deg)": 299.9927565868071,
        "Satellite Name": "Constellation 1 1339",
        "Satellite Number": 1339,
        "Semi-Major Axis(m)": 7083131.272910544,
        "Time(s)": 128
    },
    {
        "Altitude(m)": 710921.056476308,
        "Argument of Periapsis(deg)": 0.007733292805657325,
        "Eccentricity": 0.0,
        "Inclination(deg)": 45.0,
        "Latitude(deg)": -27.965021633390474,
        "Longitude(deg)": 167.6087832115365,
        "Mean Anomaly(deg)": -41.26045290776296,
        "RAAN(deg)": 299.9926999976416,
        "Satellite Name": "Constellation 1 1339",
        "Satellite Number": 1339,
        "Semi-Major Axis(m)": 7083131.272910544,
        "Time(s)": 129
    },
    {
        "Altitude(m)": 710907.2187431654,
        "Argument of Periapsis(deg)": 0.00779324081190273,
        "Eccentricity": 0.0,
        "Inclination(deg)": 45.0,
        "Latitude(deg)": -27.928448942297674,
        "Longitude(deg)": 167.6594252269224,
        "Mean Anomaly(deg)": -41.19975176751303,
        "RAAN(deg)": 299.992643408476,
        "Satellite Name": "Constellation 1 1339",
        "Satellite Number": 1339,
        "Semi-Major Axis(m)": 7083131.272910544,
        "Time(s)": 130
    },
    {
        "Altitude(m)": 710893.3797096249,
        "Argument of Periapsis(deg)": 0.007853188818148135,
        "Eccentricity": 0.0,
        "Inclination(deg)": 45.0,
        "Latitude(deg)": -27.89185423031351,
        "Longitude(deg)": 167.71003053254742,
        "Mean Anomaly(deg)": -41.13905062726324,
        "RAAN(deg)": 299.99258681931036,
        "Satellite Name": "Constellation 1 1339",
        "Satellite Number": 1339,
        "Semi-Major Axis(m)": 7083131.272910544,
        "Time(s)": 131
    },
    {
        "Altitude(m)": 710879.5394236499,
        "Argument of Periapsis(deg)": 0.007913136824393542,
        "Eccentricity": 0.0,
        "Inclination(deg)": 45.0,
        "Latitude(deg)": -27.855237545167718,
        "Longitude(deg)": 167.7605991879,
        "Mean Anomaly(deg)": -41.07834948701325,
        "RAAN(deg)": 299.99253023014484,
        "Satellite Name": "Constellation 1 1339",
        "Satellite Number": 1339,
        "Semi-Major Axis(m)": 7083131.272910544,
        "Time(s)": 132
    }
]